ORBCOMM FM05            
1 25117U 97084F   25013.75200941  .00002398  00000+0  72254-3 0  9997
2 25117  45.0158  29.0526 0001869 238.7593 121.3075 14.44940685418261
ORBCOMM FM06            
1 25118U 97084G   25014.18327233  .00002140  00000+0  64667-3 0  9994
2 25118  45.0150  26.9098 0002043 268.9571 136.2657 14.45119273419264
ORBCOMM FM07            
1 25119U 97084H   25013.76940259  .00002443  00000+0  73401-3 0  9999
2 25119  45.0146  29.6259 0001754 213.3267 146.7474 14.45020043419172
ORBCOMM FM03            
1 25158U 98007B   25014.12092247  .00002018  00000+0  76251-3 0  9998
2 25158 107.9674 179.2327 0045367 161.4577 198.8228 14.33823237402093
ORBCOMM FM04            
1 25159U 98007C   25014.13269169  .00001991  00000+0  75071-3 0  9997
2 25159 107.9663 182.3718 0040900 159.2144 201.0669 14.34088245402240
ORBCOMM FM17            
1 25413U 98046A   25014.03745568  .00001116  00000+0  44162-3 0  9990
2 25413  44.9940 264.8304 0001907 139.8578 220.2409 14.34513968381209
ORBCOMM FM19            
1 25415U 98046C   25013.81614744  .00001844  00000+0  65647-3 0  9997
2 25415  44.9916 189.0319 0004255 202.8367 290.8097 14.37553238381982
